ION SCV-008             
1 55051U 23001AU  26129.21584944  .00006004  00000+0  22121-3 0  9999
2 55051  97.5679 224.9026 0015989 146.1289 214.0974 15.28095420185387
ION SCV-007             
1 55060U 23001BD  26129.46130736  .00000325  00000+0  52654-4 0  9997
2 55060  97.9026 193.2404 0013785 100.3253 259.9512 14.77517606180536
HUYGENS                 
1 55093U 23001CN  26129.47775568  .00007840  00000+0  20227-3 0  9991
2 55093  97.3265 196.6455 0008812 212.8692 147.2007 15.39404278186415
SHARJAHSAT-1            
1 55104U 23001CZ  26129.46454894  .00014921  00000+0  29029-3 0  9996
2 55104  97.3187 197.7338 0004740 229.0420 131.0421 15.47671960186502
HORUS 1                 
1 55690U 23025A   26129.53119664  .00004322  00000+0  18390-3 0  9996
2 55690  97.3471 204.9342 0002038 115.0075 245.1374 15.23528622178169
HORUS 2                 
1 55844U 23032A   26129.50064953  .00004509  00000+0  19261-3 0  9997
2 55844  97.3538 205.6740 0002304 152.9811 207.1546 15.23370942175591
GLOBAL-19               
1 55982U 23041B   26129.14418575  .00012336  00000+0  32685-3 0  9995
2 55982  42.0013  69.6699 0005004  60.0901 300.0435 15.38202832175913
BRO-9                   
1 56185U 23054H   26129.54930725  .00145181  00000+0  75683-3 0  9995
2 56185  97.2982  45.2698 0007563 130.1454 230.0478 15.80467105172952
ION SCV-010             
1 56192U 23054Q   26129.47230442  .00003527  00000+0  14033-3 0  9993
2 56192  97.3822  19.4672 0012480 349.9235  10.1751 15.25857917170299
TELEOS-2                
1 56310U 23057C   26129.23168307  .00004818  00000+0  35476-3 0  9990
2 56310   9.9873 127.8202 0000870 276.1636  83.8478 14.96374138166952
SNIPE 4                 
1 56744U 23072B   26129.13666000  .00019068  00000+0  46610-3 0  9995
2 56744  97.5294 333.9445 0007146 105.4591 254.7445 15.40837371164098
SNIPE 2                 
1 56745U 23072C   26129.22285794  .00020744  00000+0  44211-3 0  9991
2 56745  97.5293 336.8194 0006215 129.3530 230.8269 15.44930743164220
2023-072G               
1 56749U 23072G   26129.18463288  .00025458  00000+0  48032-3 0  9998
2 56749  97.4953 335.5459 0005440 119.9148 240.2643 15.48446628164426
GEISAT PRECURSOR        
1 56934U 23084C   26129.48090334  .00006597  00000+0  20226-3 0  9996
2 56934  97.6170 269.1900 0007257 119.0003 241.1968 15.34110804161591
BLACKJACK ACES-3        
1 56950U 23084U   26129.35382213  .00002993  00000+0  14889-3 0  9994
2 56950  97.6154 264.2691 0004235 123.1519 237.0121 15.18404225161270
BLACKJACK ACES-2        
1 56955U 23084Z   26129.42600537  .00005198  00000+0  25711-3 0  9995
2 56955  97.6151 264.4277 0002641 105.2759 254.8767 15.18260074161297
BLACKJACK ACES-1        
1 56956U 23084AA  26129.34765598  .00005268  00000+0  26001-3 0  9997
2 56956  97.6142 264.1283 0002215  92.8698 267.2789 15.18335356111004
ION SCV-011             
1 56957U 23084AB  26129.51097103  .00004131  00000+0  15220-3 0  9996
2 56957  98.1389 313.2195 0007631 162.8201 197.3296 15.28462569159902
GHOST-3                 
1 56958U 23084AC  26129.35873819  .00014833  00000+0  29910-3 0  9996
2 56958  97.6170 275.9006 0007257  80.2282 279.9786 15.46624948162014
TOMORROW-R2             
1 56962U 23084AG  26129.40623999  .00148162  00000+0  55810-3 0  9990
2 56962  97.5931 288.7267 0000974 316.5947  43.5247 15.87393716162878
AFR-1                   
1 56964U 23084AJ  26129.53910777  .00003774  00000+0  13987-3 0  9997
2 56964  97.6217 265.3238 0011972 112.9425 247.3079 15.28219649161329
METEOR-M2 3             
1 57166U 23091A   26129.17311572 -.00000007  00000+0  15882-4 0  9992
2 57166  98.6113 184.9437 0002789 288.8888  71.1988 14.24043444148969
UMKA 1 (RS40S)          
1 57172U 23091G   26129.20221197  .00004304  00000+0  20060-3 0  9992
2 57172  97.5074 188.0576 0011342 252.7783 107.2210 15.20375818158081
2023-091H               
1 57173U 23091H   26129.15729507  .00008503  00000+0  31557-3 0  9993
2 57173  97.5067 192.0551 0008650 245.8813 114.1522 15.27804174158348
2023-091J               
1 57174U 23091J   26129.18845845  .00002377  00000+0  13567-3 0  9995
2 57174  97.5083 182.8426 0011668 283.8850  76.1083 15.13668160157730
CUBEBEL 2 (EU11S)       
1 57175U 23091K   26129.17031293  .00009626  00000+0  35199-3 0  9998
2 57175  97.5069 192.0633 0008682 247.6614 112.3705 15.28253642158349
SITRO-AIS 5 (KATYS)     
1 57176U 23091L   26129.19533788  .00009579  00000+0  34678-3 0  9995
2 57176  97.5079 192.7476 0010420 234.1855 125.8416 15.28570463158389
ZORKIY-2M 1             
1 57177U 23091M   26129.18994786  .00005264  00000+0  24434-3 0  9990
2 57177  97.5114 188.2894 0011960 249.3068 110.6885 15.20401715158071
CUBESX-HSE 3 (RS42S)    
1 57178U 23091N   26129.14652885  .00009989  00000+0  34350-3 0  9994
2 57178  97.5109 194.2676 0010088 223.4796 136.5650 15.30240667158459
MONITOR-3 (RS58S)       
1 57180U 23091Q   26129.15312495  .00007890  00000+0  29950-3 0  9997
2 57180  97.5102 192.3328 0010741 231.4695 128.5582 15.27064584158331
